JILIN-1                 
1 40961U 15057D   26191.84094368  .00000433  00000+0  66263-4 0  9995
2 40961  97.6516 190.0343 0016824 180.9418 179.1764 14.78197186579107
JILIN-1 03              
1 41914U 17002B   26191.84385463  .00008683  00000+0  20438-3 0  9993
2 41914  97.1950 198.6032 0008022  90.7513 269.4654 15.42156837525503
JILIN-1 04              
1 43022U 17074A   26191.82559934  .00008667  00000+0  19827-3 0  9990
2 43022  97.4868 302.0798 0005224 111.6529 248.5275 15.43054991477914
JILIN-1 05              
1 43023U 17074B   26191.79922508  .00005208  00000+0  15952-3 0  9991
2 43023  97.4874 298.2797 0006239 136.8612 223.3120 15.34241819477621
JILIN-1 06              
1 43024U 17074C   26191.83954839  .00003605  00000+0  11214-3 0  9995
2 43024  97.4801 295.2988 0007790 147.1366 213.0362 15.33964448477460
JILIN-1 07              
1 43159U 18008E   26191.82301038  .00005562  00000+0  16537-3 0  9995
2 43159  97.1770 211.1257 0007213 346.3405  13.7643 15.35116783468622
JILIN-1 08              
1 43160U 18008F   26191.83978279  .00003781  00000+0  11732-3 0  9998
2 43160  97.1805 210.4321 0005859   9.0513 351.0835 15.33977837468572
JILIN-1 09              
1 43943U 19005B   26191.80395705  .00002892  00000+0  13468-3 0  9999
2 43943  97.4743 286.5681 0002727  45.9372 314.2087 15.20717523412738
JILIN-1 10              
1 43946U 19005E   26191.80076242  .00003640  00000+0  14447-3 0  9994
2 43946  97.4792 290.6095 0008139 184.6842 175.4321 15.25976195412911
