{"fetched_at":"2026-07-11T06:35:32.954Z","source":"https://celestrak.org/NORAD/elements/gp.php?NAME=JILIN&FORMAT=JSON","constellation":"jilin-1-early","records":[{"OBJECT_NAME":"JILIN-1","OBJECT_ID":"2015-057D","EPOCH":"2026-07-10T20:10:57.533952","CLASSIFICATION_TYPE":"U","MEAN_MOTION":14.78197186,"ECCENTRICITY":0.0016824,"INCLINATION":97.6516,"RA_OF_ASC_NODE":190.0343,"ARG_OF_PERICENTER":180.9418,"MEAN_ANOMALY":179.1764,"EPHEMERIS_TYPE":0,"NORAD_CAT_ID":40961,"ELEMENT_SET_NO":999,"REV_AT_EPOCH":57910,"BSTAR":0.000066263,"MEAN_MOTION_DOT":0.00000433,"MEAN_MOTION_DDOT":0},{"OBJECT_NAME":"JILIN-1 03","OBJECT_ID":"2017-002B","EPOCH":"2026-07-10T20:15:09.040032","CLASSIFICATION_TYPE":"U","MEAN_MOTION":15.42156837,"ECCENTRICITY":0.0008022,"INCLINATION":97.195,"RA_OF_ASC_NODE":198.6032,"ARG_OF_PERICENTER":90.7513,"MEAN_ANOMALY":269.4654,"EPHEMERIS_TYPE":0,"NORAD_CAT_ID":41914,"ELEMENT_SET_NO":999,"REV_AT_EPOCH":52550,"BSTAR":0.00020438,"MEAN_MOTION_DOT":0.00008683,"MEAN_MOTION_DDOT":0},{"OBJECT_NAME":"JILIN-1 04","OBJECT_ID":"2017-074A","EPOCH":"2026-07-10T19:48:51.782976","CLASSIFICATION_TYPE":"U","MEAN_MOTION":15.43054991,"ECCENTRICITY":0.0005224,"INCLINATION":97.4868,"RA_OF_ASC_NODE":302.0798,"ARG_OF_PERICENTER":111.6529,"MEAN_ANOMALY":248.5275,"EPHEMERIS_TYPE":0,"NORAD_CAT_ID":43022,"ELEMENT_SET_NO":999,"REV_AT_EPOCH":47791,"BSTAR":0.00019827,"MEAN_MOTION_DOT":0.00008667,"MEAN_MOTION_DDOT":0},{"OBJECT_NAME":"JILIN-1 05","OBJECT_ID":"2017-074B","EPOCH":"2026-07-10T19:10:53.046912","CLASSIFICATION_TYPE":"U","MEAN_MOTION":15.34241819,"ECCENTRICITY":0.0006239,"INCLINATION":97.4874,"RA_OF_ASC_NODE":298.2797,"ARG_OF_PERICENTER":136.8612,"MEAN_ANOMALY":223.312,"EPHEMERIS_TYPE":0,"NORAD_CAT_ID":43023,"ELEMENT_SET_NO":999,"REV_AT_EPOCH":47762,"BSTAR":0.00015952,"MEAN_MOTION_DOT":0.00005208,"MEAN_MOTION_DDOT":0},{"OBJECT_NAME":"JILIN-1 06","OBJECT_ID":"2017-074C","EPOCH":"2026-07-10T20:08:56.980896","CLASSIFICATION_TYPE":"U","MEAN_MOTION":15.33964448,"ECCENTRICITY":0.000779,"INCLINATION":97.4801,"RA_OF_ASC_NODE":295.2988,"ARG_OF_PERICENTER":147.1366,"MEAN_ANOMALY":213.0362,"EPHEMERIS_TYPE":0,"NORAD_CAT_ID":43024,"ELEMENT_SET_NO":999,"REV_AT_EPOCH":47746,"BSTAR":0.00011214,"MEAN_MOTION_DOT":0.00003605,"MEAN_MOTION_DDOT":0},{"OBJECT_NAME":"JILIN-1 07","OBJECT_ID":"2018-008E","EPOCH":"2026-07-10T19:45:08.096832","CLASSIFICATION_TYPE":"U","MEAN_MOTION":15.35116783,"ECCENTRICITY":0.0007213,"INCLINATION":97.177,"RA_OF_ASC_NODE":211.1257,"ARG_OF_PERICENTER":346.3405,"MEAN_ANOMALY":13.7643,"EPHEMERIS_TYPE":0,"NORAD_CAT_ID":43159,"ELEMENT_SET_NO":999,"REV_AT_EPOCH":46862,"BSTAR":0.00016537,"MEAN_MOTION_DOT":0.00005562,"MEAN_MOTION_DDOT":0},{"OBJECT_NAME":"JILIN-1 08","OBJECT_ID":"2018-008F","EPOCH":"2026-07-10T20:09:17.233056","CLASSIFICATION_TYPE":"U","MEAN_MOTION":15.33977837,"ECCENTRICITY":0.0005859,"INCLINATION":97.1805,"RA_OF_ASC_NODE":210.4321,"ARG_OF_PERICENTER":9.0513,"MEAN_ANOMALY":351.0835,"EPHEMERIS_TYPE":0,"NORAD_CAT_ID":43160,"ELEMENT_SET_NO":999,"REV_AT_EPOCH":46857,"BSTAR":0.00011732,"MEAN_MOTION_DOT":0.00003781,"MEAN_MOTION_DDOT":0},{"OBJECT_NAME":"JILIN-1 09","OBJECT_ID":"2019-005B","EPOCH":"2026-07-10T19:17:41.889120","CLASSIFICATION_TYPE":"U","MEAN_MOTION":15.20717523,"ECCENTRICITY":0.0002727,"INCLINATION":97.4743,"RA_OF_ASC_NODE":286.5681,"ARG_OF_PERICENTER":45.9372,"MEAN_ANOMALY":314.2087,"EPHEMERIS_TYPE":0,"NORAD_CAT_ID":43943,"ELEMENT_SET_NO":999,"REV_AT_EPOCH":41273,"BSTAR":0.00013468,"MEAN_MOTION_DOT":0.00002892,"MEAN_MOTION_DDOT":0},{"OBJECT_NAME":"JILIN-1 10","OBJECT_ID":"2019-005E","EPOCH":"2026-07-10T19:13:05.873088","CLASSIFICATION_TYPE":"U","MEAN_MOTION":15.25976195,"ECCENTRICITY":0.0008139,"INCLINATION":97.4792,"RA_OF_ASC_NODE":290.6095,"ARG_OF_PERICENTER":184.6842,"MEAN_ANOMALY":175.4321,"EPHEMERIS_TYPE":0,"NORAD_CAT_ID":43946,"ELEMENT_SET_NO":999,"REV_AT_EPOCH":41291,"BSTAR":0.00014447,"MEAN_MOTION_DOT":0.0000364,"MEAN_MOTION_DDOT":0}]}
